[{"OBJECT_NAME":"KINEIS-2A","OBJECT_ID":"2025-028E","EPOCH":"2026-03-09T16:30:13.930272","MEAN_MOTION":14.72099682,"ECCENTRICITY":0.00031402,"INCLINATION":98.0771,"RA_OF_ASC_NODE":124.1949,"ARG_OF_PERICENTER":197.3611,"MEAN_ANOMALY":162.7489,"EPHEMERIS_TYPE":0,"CLASSIFICATION_TYPE":"U","NORAD_CAT_ID":62932,"ELEMENT_SET_NO":999,"REV_AT_EPOCH":5796,"BSTAR":0.00024267113,"MEAN_MOTION_DOT":1.477e-5,"MEAN_MOTION_DDOT":0},{"OBJECT_NAME":"NOAA 17 DEB","OBJECT_ID":"2002-032CP","EPOCH":"2026-03-07T02:13:52.588992","MEAN_MOTION":14.69231223,"ECCENTRICITY":0.00146866,"INCLINATION":98.9391,"RA_OF_ASC_NODE":117.6566,"ARG_OF_PERICENTER":130.4313,"MEAN_ANOMALY":229.8174,"EPHEMERIS_TYPE":0,"CLASSIFICATION_TYPE":"U","NORAD_CAT_ID":48754,"ELEMENT_SET_NO":999,"REV_AT_EPOCH":25957,"BSTAR":0.0030547782,"MEAN_MOTION_DOT":0.00018018,"MEAN_MOTION_DDOT":0}]
